[{"OBJECT_NAME":"STARLINK-36092","OBJECT_ID":"2025-281X","EPOCH":"2026-03-06T03:54:33.537024","MEAN_MOTION":15.27594419,"ECCENTRICITY":0.00012215,"INCLINATION":43.0021,"RA_OF_ASC_NODE":3.6045,"ARG_OF_PERICENTER":281.5439,"MEAN_ANOMALY":78.5275,"EPHEMERIS_TYPE":0,"CLASSIFICATION_TYPE":"U","NORAD_CAT_ID":66869,"ELEMENT_SET_NO":999,"REV_AT_EPOCH":1563,"BSTAR":0.00095975009,"MEAN_MOTION_DOT":0.00026254,"MEAN_MOTION_DDOT":0},{"OBJECT_NAME":"STARLINK-36114","OBJECT_ID":"2025-281Y","EPOCH":"2026-03-06T03:49:00.453792","MEAN_MOTION":15.27599283,"ECCENTRICITY":0.00014511,"INCLINATION":43.0032,"RA_OF_ASC_NODE":3.5731,"ARG_OF_PERICENTER":263.8114,"MEAN_ANOMALY":96.2572,"EPHEMERIS_TYPE":0,"CLASSIFICATION_TYPE":"U","NORAD_CAT_ID":66870,"ELEMENT_SET_NO":999,"REV_AT_EPOCH":1563,"BSTAR":0.0013898414,"MEAN_MOTION_DOT":0.00038204,"MEAN_MOTION_DDOT":0},{"OBJECT_NAME":"STARLINK-36095","OBJECT_ID":"2025-281Z","EPOCH":"2026-03-06T05:17:36.779712","MEAN_MOTION":15.27589821,"ECCENTRICITY":0.00016885,"INCLINATION":43.0053,"RA_OF_ASC_NODE":3.1758,"ARG_OF_PERICENTER":265.4456,"MEAN_ANOMALY":94.6203,"EPHEMERIS_TYPE":0,"CLASSIFICATION_TYPE":"U","NORAD_CAT_ID":66871,"ELEMENT_SET_NO":999,"REV_AT_EPOCH":1563,"BSTAR":0.0011958966,"MEAN_MOTION_DOT":0.00032803,"MEAN_MOTION_DDOT":0},{"OBJECT_NAME":"STARLINK-36082","OBJECT_ID":"2025-281AA","EPOCH":"2026-03-06T05:12:02.985408","MEAN_MOTION":15.27612781,"ECCENTRICITY":0.00015207,"INCLINATION":43.0046,"RA_OF_ASC_NODE":3.1473,"ARG_OF_PERICENTER":280.136,"MEAN_ANOMALY":79.932,"EPHEMERIS_TYPE":0,"CLASSIFICATION_TYPE":"U","NORAD_CAT_ID":66872,"ELEMENT_SET_NO":999,"REV_AT_EPOCH":1564,"BSTAR":0.0011225879,"MEAN_MOTION_DOT":0.00030789,"MEAN_MOTION_DDOT":0},{"OBJECT_NAME":"STARLINK-36128","OBJECT_ID":"2025-281AB","EPOCH":"2026-03-06T04:57:15.106176","MEAN_MOTION":15.27565516,"ECCENTRICITY":0.00018805,"INCLINATION":43.0052,"RA_OF_ASC_NODE":3.0683,"ARG_OF_PERICENTER":278.3667,"MEAN_ANOMALY":81.6971,"EPHEMERIS_TYPE":0,"CLASSIFICATION_TYPE":"U","NORAD_CAT_ID":66873,"ELEMENT_SET_NO":999,"REV_AT_EPOCH":1559,"BSTAR":0.0013588427,"MEAN_MOTION_DOT":0.00037303,"MEAN_MOTION_DDOT":0},{"OBJECT_NAME":"STARLINK-36129","OBJECT_ID":"2025-281AC","EPOCH":"2026-03-06T05:06:30.322944","MEAN_MOTION":15.27584791,"ECCENTRICITY":0.00017512,"INCLINATION":43.0045,"RA_OF_ASC_NODE":3.1178,"ARG_OF_PERICENTER":260.4161,"MEAN_ANOMALY":99.6493,"EPHEMERIS_TYPE":0,"CLASSIFICATION_TYPE":"U","NORAD_CAT_ID":66874,"ELEMENT_SET_NO":999,"REV_AT_EPOCH":1564,"BSTAR":0.0014136406,"MEAN_MOTION_DOT":0.00038849,"MEAN_MOTION_DDOT":0},{"OBJECT_NAME":"STARLINK-36053","OBJECT_ID":"2025-281AD","EPOCH":"2026-03-06T04:51:41.831136","MEAN_MOTION":15.27594748,"ECCENTRICITY":0.00024889,"INCLINATION":43.0077,"RA_OF_ASC_NODE":3.0379,"ARG_OF_PERICENTER":268.178,"MEAN_ANOMALY":91.8786,"EPHEMERIS_TYPE":0,"CLASSIFICATION_TYPE":"U","NORAD_CAT_ID":66875,"ELEMENT_SET_NO":999,"REV_AT_EPOCH":1559,"BSTAR":0.0012717196,"MEAN_MOTION_DOT":0.00034916,"MEAN_MOTION_DDOT":0},{"OBJECT_NAME":"STARLINK-35702","OBJECT_ID":"2025-281AE","EPOCH":"2026-03-06T05:00:56.912256","MEAN_MOTION":15.27592699,"ECCENTRICITY":0.00025226,"INCLINATION":43.0039,"RA_OF_ASC_NODE":3.0896,"ARG_OF_PERICENTER":248.7244,"MEAN_ANOMALY":111.3338,"EPHEMERIS_TYPE":0,"CLASSIFICATION_TYPE":"U","NORAD_CAT_ID":66876,"ELEMENT_SET_NO":999,"REV_AT_EPOCH":1564,"BSTAR":0.0012526799,"MEAN_MOTION_DOT":0.00034385,"MEAN_MOTION_DDOT":0},{"OBJECT_NAME":"STARLINK-35866","OBJECT_ID":"2025-283A","EPOCH":"2026-03-06T05:09:50.303520","MEAN_MOTION":15.30194285,"ECCENTRICITY":0.0001418,"INCLINATION":53.1604,"RA_OF_ASC_NODE":40.2027,"ARG_OF_PERICENTER":98.4822,"MEAN_ANOMALY":261.6339,"EPHEMERIS_TYPE":0,"CLASSIFICATION_TYPE":"U","NORAD_CAT_ID":66878,"ELEMENT_SET_NO":999,"REV_AT_EPOCH":1531,"BSTAR":0.00084127766,"MEAN_MOTION_DOT":0.00024635,"MEAN_MOTION_DDOT":0},{"OBJECT_NAME":"STARLINK-35749","OBJECT_ID":"2025-283B","EPOCH":"2026-03-06T04:53:07.476000","MEAN_MOTION":15.3019417,"ECCENTRICITY":0.00012154,"INCLINATION":53.1604,"RA_OF_ASC_NODE":40.1292,"ARG_OF_PERICENTER":95.6618,"MEAN_ANOMALY":264.4521,"EPHEMERIS_TYPE":0,"CLASSIFICATION_TYPE":"U","NORAD_CAT_ID":66879,"ELEMENT_SET_NO":999,"REV_AT_EPOCH":1531,"BSTAR":0.0013195394,"MEAN_MOTION_DOT":0.0003892,"MEAN_MOTION_DDOT":0},{"OBJECT_NAME":"STARLINK-35844","OBJECT_ID":"2025-283C","EPOCH":"2026-03-06T05:00:43.362144","MEAN_MOTION":15.3019938,"ECCENTRICITY":0.00010905,"INCLINATION":53.1606,"RA_OF_ASC_NODE":40.1619,"ARG_OF_PERICENTER":71.9087,"MEAN_ANOMALY":288.2032,"EPHEMERIS_TYPE":0,"CLASSIFICATION_TYPE":"U","NORAD_CAT_ID":66880,"ELEMENT_SET_NO":999,"REV_AT_EPOCH":1531,"BSTAR":0.0010537931,"MEAN_MOTION_DOT":0.00030981,"MEAN_MOTION_DDOT":0},{"OBJECT_NAME":"STARLINK-35860","OBJECT_ID":"2025-283D","EPOCH":"2026-03-06T04:44:00.408480","MEAN_MOTION":15.30226952,"ECCENTRICITY":0.00014827,"INCLINATION":53.1616,"RA_OF_ASC_NODE":40.0887,"ARG_OF_PERICENTER":103.4979,"MEAN_ANOMALY":256.6187,"EPHEMERIS_TYPE":0,"CLASSIFICATION_TYPE":"U","NORAD_CAT_ID":66881,"ELEMENT_SET_NO":999,"REV_AT_EPOCH":1531,"BSTAR":0.0011879363,"MEAN_MOTION_DOT":0.00035019,"MEAN_MOTION_DDOT":0},{"OBJECT_NAME":"STARLINK-35912","OBJECT_ID":"2025-283E","EPOCH":"2026-03-06T06:03:01.738944","MEAN_MOTION":15.30214831,"ECCENTRICITY":0.00010197,"INCLINATION":53.1621,"RA_OF_ASC_NODE":40.4373,"ARG_OF_PERICENTER":104.6303,"MEAN_ANOMALY":255.4811,"EPHEMERIS_TYPE":0,"CLASSIFICATION_TYPE":"U","NORAD_CAT_ID":66882,"ELEMENT_SET_NO":999,"REV_AT_EPOCH":1531,"BSTAR":0.0010789123,"MEAN_MOTION_DOT":0.00031746,"MEAN_MOTION_DDOT":0},{"OBJECT_NAME":"STARLINK-35947","OBJECT_ID":"2025-283F","EPOCH":"2026-03-06T05:59:59.958528","MEAN_MOTION":15.30207978,"ECCENTRICITY":0.00013752,"INCLINATION":53.1622,"RA_OF_ASC_NODE":40.4221,"ARG_OF_PERICENTER":101.1277,"MEAN_ANOMALY":258.9879,"EPHEMERIS_TYPE":0,"CLASSIFICATION_TYPE":"U","NORAD_CAT_ID":66883,"ELEMENT_SET_NO":999,"REV_AT_EPOCH":1533,"BSTAR":0.00091912132,"MEAN_MOTION_DOT":0.00026968,"MEAN_MOTION_DDOT":0},{"OBJECT_NAME":"STARLINK-36057","OBJECT_ID":"2025-283G","EPOCH":"2026-03-06T07:24:55.432224","MEAN_MOTION":15.3020358,"ECCENTRICITY":0.00011729,"INCLINATION":53.1613,"RA_OF_ASC_NODE":40.0794,"ARG_OF_PERICENTER":99.5563,"MEAN_ANOMALY":260.557,"EPHEMERIS_TYPE":0,"CLASSIFICATION_TYPE":"U","NORAD_CAT_ID":66884,"ELEMENT_SET_NO":999,"REV_AT_EPOCH":1532,"BSTAR":0.00055954968,"MEAN_MOTION_DOT":0.00016251,"MEAN_MOTION_DDOT":0},{"OBJECT_NAME":"STARLINK-35954","OBJECT_ID":"2025-283H","EPOCH":"2026-03-06T05:55:25.814784","MEAN_MOTION":15.30211812,"ECCENTRICITY":0.00011427,"INCLINATION":53.1618,"RA_OF_ASC_NODE":40.403,"ARG_OF_PERICENTER":93.9051,"MEAN_ANOMALY":266.2081,"EPHEMERIS_TYPE":0,"CLASSIFICATION_TYPE":"U","NORAD_CAT_ID":66885,"ELEMENT_SET_NO":999,"REV_AT_EPOCH":1531,"BSTAR":0.00089716902,"MEAN_MOTION_DOT":0.00026316,"MEAN_MOTION_DDOT":0}]
