STARLINK-36092          
1 66869U 25281X   26065.16288816  .00026254  00000+0  95975-3 0  9998
2 66869  43.0021   3.6045 0001221 281.5439  78.5275 15.27594419 15639
STARLINK-36114          
1 66870U 25281Y   26065.15903303  .00038204  00000+0  13898-2 0  9995
2 66870  43.0032   3.5731 0001451 263.8114  96.2572 15.27599283 15633
STARLINK-36095          
1 66871U 25281Z   26065.22056458  .00032803  00000+0  11959-2 0  9999
2 66871  43.0053   3.1758 0001688 265.4456  94.6203 15.27589821 15631
STARLINK-36082          
1 66872U 25281AA  26065.21670122  .00030789  00000+0  11226-2 0  9997
2 66872  43.0046   3.1473 0001520 280.1360  79.9320 15.27612781 15640
STARLINK-36128          
1 66873U 25281AB  26065.20642484  .00037303  00000+0  13588-2 0  9999
2 66873  43.0052   3.0683 0001880 278.3667  81.6971 15.27565516 15597
STARLINK-36129          
1 66874U 25281AC  26065.21285096  .00038849  00000+0  14136-2 0  9999
2 66874  43.0045   3.1178 0001751 260.4161  99.6493 15.27584791 15648
STARLINK-36053          
1 66875U 25281AD  26065.20256749  .00034916  00000+0  12717-2 0  9996
2 66875  43.0077   3.0379 0002488 268.1780  91.8786 15.27594748 15592
STARLINK-35702          
1 66876U 25281AE  26065.20899204  .00034385  00000+0  12527-2 0  9995
2 66876  43.0039   3.0896 0002522 248.7244 111.3338 15.27592699 15643
STARLINK-35866          
1 66878U 25283A   26065.21516555  .00024635  00000+0  84128-3 0  9999
2 66878  53.1604  40.2027 0001418  98.4822 261.6339 15.30194285 15316
STARLINK-35749          
1 66879U 25283B   26065.20355875  .00038920  00000+0  13195-2 0  9992
2 66879  53.1604  40.1292 0001215  95.6618 264.4521 15.30194170 15314
STARLINK-35844          
1 66880U 25283C   26065.20883521  .00030981  00000+0  10538-2 0  9995
2 66880  53.1606  40.1619 0001090  71.9087 288.2032 15.30199380 15318
STARLINK-35860          
1 66881U 25283D   26065.19722695  .00035019  00000+0  11879-2 0  9994
2 66881  53.1616  40.0887 0001482 103.4979 256.6187 15.30226952 15318
STARLINK-35912          
1 66882U 25283E   26065.25210346  .00031746  00000+0  10789-2 0  9999
2 66882  53.1621  40.4373 0001019 104.6303 255.4811 15.30214831 15313
STARLINK-35947          
1 66883U 25283F   26065.24999952  .00026968  00000+0  91912-3 0  9994
2 66883  53.1622  40.4221 0001375 101.1277 258.9879 15.30207978 15332
STARLINK-36057          
1 66884U 25283G   26065.30897491  .00016251  00000+0  55955-3 0  9998
2 66884  53.1613  40.0794 0001172  99.5563 260.5570 15.30203580 15328
STARLINK-35954          
1 66885U 25283H   26065.24682656  .00026316  00000+0  89717-3 0  9993
2 66885  53.1618  40.4030 0001142  93.9051 266.2081 15.30211812 15314
